{
  "type": "FeatureCollection",
  "features": [
    {
      "type": "Feature",
      "properties": {
        "norad_id": 38709,
        "name": "EXACTVIEW-1 (ADS-1B)",
        "group": "resource",
        "lat": -50.40733324236434,
        "lon": 108.13264442426045,
        "alt_km": 809.7885605558913,
        "timestamp": "2025-12-14T16:47:40.339860+00:00",
        "meta_object_name": "EXACTVIEW-1 (ADS-1B)",
        "meta_object_id": "2012-039C",
        "meta_epoch": "2025-12-13T22:29:46.932000",
        "meta_mean_motion": 14.24908647,
        "meta_eccentricity": 0.00106141,
        "meta_inclination": 98.9637,
        "meta_ra_of_asc_node": 96.3526,
        "meta_arg_of_pericenter": 350.7042,
        "meta_mean_anomaly": 9.3939,
        "meta_ephemeris_type": 0,
        "meta_classification_type": "U",
        "meta_norad_cat_id": 38709,
        "meta_element_set_no": 999,
        "meta_rev_at_epoch": 69632,
        "meta_bstar": 0.00011213019,
        "meta_mean_motion_dot": 2.16e-06,
        "meta_mean_motion_ddot": 0,
        "tle_line1": "1 38709U 12039C   25347.93734875  .00000216  00000+0  11213-3 0  9998",
        "tle_line2": "2 38709  98.9637  96.3526 0010614 350.7042   9.3939 14.24908647696329"
      },
      "geometry": {
        "type": "Point",
        "coordinates": [
          108.13264442426045,
          -50.40733324236434
        ]
      }
    },
    {
      "type": "Feature",
      "properties": {
        "norad_id": 38755,
        "name": "SPOT 6",
        "group": "resource",
        "lat": -34.24239109055193,
        "lon": -132.15467484166288,
        "alt_km": 704.2763620851083,
        "timestamp": "2025-12-14T16:47:40.339870+00:00",
        "meta_object_name": "SPOT 6",
        "meta_object_id": "2012-047A",
        "meta_epoch": "2025-12-14T00:59:47.805792",
        "meta_mean_motion": 14.58605769,
        "meta_eccentricity": 0.000117,
        "meta_inclination": 98.157,
        "meta_ra_of_asc_node": 52.802,
        "meta_arg_of_pericenter": 98.5806,
        "meta_mean_anomaly": 261.5526,
        "meta_ephemeris_type": 0,
        "meta_classification_type": "U",
        "meta_norad_cat_id": 38755,
        "meta_element_set_no": 999,
        "meta_rev_at_epoch": 70606,
        "meta_bstar": 0.00017853844,
        "meta_mean_motion_dot": 7.86e-06,
        "meta_mean_motion_ddot": 0,
        "tle_line1": "1 38755U 12047A   25348.04152553  .00000786  00000+0  17854-3 0  9997",
        "tle_line2": "2 38755  98.1570  52.8020 0001170  98.5806 261.5526 14.58605769706069"
      },
      "geometry": {
        "type": "Point",
        "coordinates": [
          -132.15467484166288,
          -34.24239109055193
        ]
      }
    },
    {
      "type": "Feature",
      "properties": {
        "norad_id": 39019,
        "name": "PLEIADES 1B",
        "group": "resource",
        "lat": 65.86513102082984,
        "lon": -99.9568290024376,
        "alt_km": 690.6648636838463,
        "timestamp": "2025-12-14T16:47:40.339881+00:00",
        "meta_object_name": "PLEIADES 1B",
        "meta_object_id": "2012-068A",
        "meta_epoch": "2025-12-13T23:48:54.636192",
        "meta_mean_motion": 14.58555307,
        "meta_eccentricity": 0.00012277,
        "meta_inclination": 98.179,
        "meta_ra_of_asc_node": 60.6238,
        "meta_arg_of_pericenter": 83.722,
        "meta_mean_anomaly": 276.4119,
        "meta_ephemeris_type": 0,
        "meta_classification_type": "U",
        "meta_norad_cat_id": 39019,
        "meta_element_set_no": 999,
        "meta_rev_at_epoch": 69385,
        "meta_bstar": 0.00017758713,
        "meta_mean_motion_dot": 7.8e-06,
        "meta_mean_motion_ddot": 0,
        "tle_line1": "1 39019U 12068A   25347.99229903  .00000780  00000+0  17759-3 0  9999",
        "tle_line2": "2 39019  98.1790  60.6238 0001227  83.7220 276.4119 14.58555307693851"
      },
      "geometry": {
        "type": "Point",
        "coordinates": [
          -99.9568290024376,
          65.86513102082984
        ]
      }
    },
    {
      "type": "Feature",
      "properties": {
        "norad_id": 39030,
        "name": "GOKTURK 2",
        "group": "resource",
        "lat": 81.30647869042424,
        "lon": 128.1729327208755,
        "alt_km": 636.0726655214903,
        "timestamp": "2025-12-14T16:47:40.339891+00:00",
        "meta_object_name": "GOKTURK 2",
        "meta_object_id": "2012-073A",
        "meta_epoch": "2025-12-14T00:07:43.159296",
        "meta_mean_motion": 14.75295969,
        "meta_eccentricity": 0.00010401,
        "meta_inclination": 97.6897,
        "meta_ra_of_asc_node": 189.5968,
        "meta_arg_of_pericenter": 105.2214,
        "meta_mean_anomaly": 254.9111,
        "meta_ephemeris_type": 0,
        "meta_classification_type": "U",
        "meta_norad_cat_id": 39030,
        "meta_element_set_no": 999,
        "meta_rev_at_epoch": 69720,
        "meta_bstar": 0.0002280475,
        "meta_mean_motion_dot": 1.497e-05,
        "meta_mean_motion_ddot": 0,
        "tle_line1": "1 39030U 12073A   25348.00536064  .00001497  00000+0  22805-3 0  9994",
        "tle_line2": "2 39030  97.6897 189.5968 0001040 105.2214 254.9111 14.75295969697203"
      },
      "geometry": {
        "type": "Point",
        "coordinates": [
          128.1729327208755,
          81.30647869042424
        ]
      }
    },
    {
      "type": "Feature",
      "properties": {
        "norad_id": 39084,
        "name": "LANDSAT 8",
        "group": "resource",
        "lat": -81.38184406164493,
        "lon": 128.9702016974701,
        "alt_km": 710.6137606920593,
        "timestamp": "2025-12-14T16:47:40.339901+00:00",
        "meta_object_name": "LANDSAT 8",
        "meta_object_id": "2013-008A",
        "meta_epoch": "2025-12-13T23:03:59.106528",
        "meta_mean_motion": 14.57115436,
        "meta_eccentricity": 0.00010883,
        "meta_inclination": 98.2072,
        "meta_ra_of_asc_node": 56.0166,
        "meta_arg_of_pericenter": 89.6964,
        "meta_mean_anomaly": 270.4359,
        "meta_ephemeris_type": 0,
        "meta_classification_type": "U",
        "meta_norad_cat_id": 39084,
        "meta_element_set_no": 999,
        "meta_rev_at_epoch": 67092,
        "meta_bstar": 0.00013768934,
        "meta_mean_motion_dot": 5.75e-06,
        "meta_mean_motion_ddot": 0,
        "tle_line1": "1 39084U 13008A   25347.96110077  .00000575  00000+0  13769-3 0  9993",
        "tle_line2": "2 39084  98.2072  56.0166 0001088  89.6964 270.4359 14.57115436670928"
      },
      "geometry": {
        "type": "Point",
        "coordinates": [
          128.9702016974701,
          -81.38184406164493
        ]
      }
    },
    {
      "type": "Feature",
      "properties": {
        "norad_id": 39086,
        "name": "SARAL",
        "group": "resource",
        "lat": 80.8414146884123,
        "lon": 103.67266333081464,
        "alt_km": 773.1092097361134,
        "timestamp": "2025-12-14T16:47:40.339912+00:00",
        "meta_object_name": "SARAL",
        "meta_object_id": "2013-009A",
        "meta_epoch": "2025-12-13T23:37:51.265632",
        "meta_mean_motion": 14.32757522,
        "meta_eccentricity": 0.00028933,
        "meta_inclination": 98.5503,
        "meta_ra_of_asc_node": 171.8988,
        "meta_arg_of_pericenter": 106.3272,
        "meta_mean_anomaly": 253.8231,
        "meta_ephemeris_type": 0,
        "meta_classification_type": "U",
        "meta_norad_cat_id": 39086,
        "meta_element_set_no": 999,
        "meta_rev_at_epoch": 66908,
        "meta_bstar": 8.1008809e-05,
        "meta_mean_motion_dot": 1.77e-06,
        "meta_mean_motion_ddot": 0,
        "tle_line1": "1 39086U 13009A   25347.98462113  .00000177  00000+0  81009-4 0  9990",
        "tle_line2": "2 39086  98.5503 171.8988 0002893 106.3272 253.8231 14.32757522669084"
      },
      "geometry": {
        "type": "Point",
        "coordinates": [
          103.67266333081464,
          80.8414146884123
        ]
      }
    },
    {
      "type": "Feature",
      "properties": {
        "norad_id": 39150,
        "name": "GAOFEN-1",
        "group": "resource",
        "lat": 6.916367065754994,
        "lon": -119.7068452251524,
        "alt_km": 631.9479559657029,
        "timestamp": "2025-12-14T16:47:40.339921+00:00",
        "meta_object_name": "GAOFEN-1",
        "meta_object_id": "2013-018A",
        "meta_epoch": "2025-12-13T23:45:03.797856",
        "meta_mean_motion": 14.76538052,
        "meta_eccentricity": 0.0018304,
        "meta_inclination": 97.9324,
        "meta_ra_of_asc_node": 58.6265,
        "meta_arg_of_pericenter": 139.0786,
        "meta_mean_anomaly": 221.1802,
        "meta_ephemeris_type": 0,
        "meta_classification_type": "U",
        "meta_norad_cat_id": 39150,
        "meta_element_set_no": 999,
        "meta_rev_at_epoch": 68091,
        "meta_bstar": 0.00017492296,
        "meta_mean_motion_dot": 1.172e-05,
        "meta_mean_motion_ddot": 0,
        "tle_line1": "1 39150U 13018A   25347.98962729  .00001172  00000+0  17492-3 0  9990",
        "tle_line2": "2 39150  97.9324  58.6265 0018304 139.0786 221.1802 14.76538052680917"
      },
      "geometry": {
        "type": "Point",
        "coordinates": [
          -119.7068452251524,
          6.916367065754994
        ]
      }
    }
  ]
}